- !!map
  id:                 22
  name:               Urlum
  radius:             2177000
  atmosphereAlt:      325000.0
  mass:               1.7896369311579417e+23
  stdGravParam:       11944573769627.45
  soi:                2562226897.2821903
  orbit:
    semiMajorAxis:    254317012787
    eccentricity:     0.045214674
    inclination:      0.64
    argOfPeriapsis:   0
    ascNodeLongitude: 61
  meanAnomaly0:       5.59607362747192
  epoch:              422.539999999906
  orbiting:           0
  color:              0x48d1cc

- !!map
  id:                 23
  name:               Polta
  radius:             220000
  mass:               1.3511821973839953e+21
  stdGravParam:       90181953400
  soi:                1661114.8530520673
  orbit:
    semiMajorAxis:    11727895
    eccentricity:     0.0015
    inclination:      2.45
    argOfPeriapsis:   60
    ascNodeLongitude: 40
  meanAnomaly0:       1.5209
  epoch:              878.1399
  orbiting:           22
  color:              0x7a9f93

- !!map
  id:                 24
  name:               Priax
  radius:             74000
  mass:               50689608950751390000
  stdGravParam:       3383176570.2
  soi:                446767.6019786148
  orbit:
    semiMajorAxis:    11727895
    eccentricity:     0.0015
    inclination:      2.5
    argOfPeriapsis:   0
    ascNodeLongitude: 40
  meanAnomaly0:       1.5209
  epoch:              878.1399
  orbiting:           22
  color:              0x6b6a66

- !!map
  id:                 25
  name:               Wal
  radius:             370000
  mass:               7.44252194911826e+21
  stdGravParam:       496736242450
  soi:                18933504.68477647
  orbit:
    semiMajorAxis:    67553668
    eccentricity:     0.023
    inclination:      1.9
    argOfPeriapsis:   0
    ascNodeLongitude: 40
  meanAnomaly0:       2.9615
  epoch:              1078.179
  orbiting:           22
  color:              0xb89963

- !!map
  id:                 26
  name:               Tal
  radius:             22000
  mass:               3200168362225252400
  stdGravParam:       213588837
  soi:                139966.65125981288
  orbit:
    semiMajorAxis:    3109163
    eccentricity:     0
    inclination:      1.9
    argOfPeriapsis:   0
    ascNodeLongitude: 40
  meanAnomaly0:       0
  epoch:              1179.579
  orbiting:           25
  color:              0x665b4a

- !!map
  id:                 27
  name:               Neidon
  radius:             2145000
  atmosphereAlt:      260000.0
  mass:               2.1227516788730655e+23
  stdGravParam:       14167881530302.5
  soi:                4415665622.289967
  orbit:
    semiMajorAxis:    409355191706
    eccentricity:     0.0127567
    inclination:      1.27
    argOfPeriapsis:   0
    ascNodeLongitude: 259
  meanAnomaly0:       2.27167344093323
  epoch:              99.6799999999973
  orbiting:           0
  color:              0x6959cd

- !!map
  id:                 28
  name:               Thatmo
  radius:             286000
  atmosphereAlt:      35000.0
  mass:               2.7882711365806153e+21
  stdGravParam:       186097580468.8
  soi:                5709379.088531882
  orbit:
    semiMajorAxis:    32300895
    eccentricity:     0.00043
    inclination:      161.1
    argOfPeriapsis:   0
    ascNodeLongitude: 66
  meanAnomaly0:       2.04731106758118
  epoch:              1953406.32967385
  orbiting:           27
  color:              0xe6e6f9

- !!map
  id:                 29
  name:               Nissee
  radius:             30000
  mass:               5950726293394064000
  stdGravParam:       397169325
  soi:                7366476.635255131
  orbit:
    semiMajorAxis:    487743514
    eccentricity:     0.72
    inclination:      29.56
    argOfPeriapsis:   0
    ascNodeLongitude: 66
  meanAnomaly0:       2.04731106758118
  epoch:              1953406.32967385
  orbiting:           27
  color:              0xd1b38c

- !!map
  id:                 30
  name:               Plock
  radius:             189000
  mass:               776784007434487600000
  stdGravParam:       51844895008.2
  soi:                612754258.4676156
  orbit:
    semiMajorAxis:    535833706086
    eccentricity:     0.26
    inclination:      6.15
    argOfPeriapsis:   50
    ascNodeLongitude: 260
  meanAnomaly0:       0
  epoch:              213
  orbiting:           0
  color:              0xNaN

- !!map
  id:                 31
  name:               Karen
  radius:             85050
  mass:               70146744995688686000
  stdGravParam:       4681804201.24725
  soi:                939354.3242775212
  orbit:
    semiMajorAxis:    2457800
    eccentricity:     0
    inclination:      0
    argOfPeriapsis:   50
    ascNodeLongitude: 260
  meanAnomaly0:       0
  epoch:              213
  orbiting:           30
  color:              0xNaN
